{
  "type": "FeatureCollection",
  "features": [
    {
      "type": "Feature",
      "properties": {
        "norad_id": 58655,
        "name": "BEIDOU-3 M26 (C48)",
        "group": "beidou",
        "lat": -35.88644778783903,
        "lon": -82.01942084278124,
        "alt_km": 21522.92850252707,
        "timestamp": "2025-12-21T16:47:55.003915+00:00",
        "meta_object_name": "BEIDOU-3 M26 (C48)",
        "meta_object_id": "2023-207B",
        "meta_epoch": "2025-12-21T08:44:02.300064",
        "meta_mean_motion": 1.86231304,
        "meta_eccentricity": 0.0004101,
        "meta_inclination": 55.5938,
        "meta_ra_of_asc_node": 68.2956,
        "meta_arg_of_pericenter": 259.2566,
        "meta_mean_anomaly": 100.7432,
        "meta_ephemeris_type": 0,
        "meta_classification_type": "U",
        "meta_norad_cat_id": 58655,
        "meta_element_set_no": 999,
        "meta_rev_at_epoch": 1351,
        "meta_bstar": 0,
        "meta_mean_motion_dot": -3.7e-07,
        "meta_mean_motion_ddot": 0,
        "tle_line1": "1 58655U 23207B   25355.36391551 -.00000037  00000+0  00000+0 0  9995",
        "tle_line2": "2 58655  55.5938  68.2956 0004101 259.2566 100.7432  1.86231304 13518"
      },
      "geometry": {
        "type": "Point",
        "coordinates": [
          -82.01942084278124,
          -35.88644778783903
        ]
      }
    },
    {
      "type": "Feature",
      "properties": {
        "norad_id": 61186,
        "name": "BEIDOU-3 M25 (C47)",
        "group": "beidou",
        "lat": -14.42696755921746,
        "lon": -62.129195217152095,
        "alt_km": 21518.963892177842,
        "timestamp": "2025-12-21T16:47:55.003930+00:00",
        "meta_object_name": "BEIDOU-3 M25 (C47)",
        "meta_object_id": "2024-168B",
        "meta_epoch": "2025-12-21T10:54:12.559392",
        "meta_mean_motion": 1.86230226,
        "meta_eccentricity": 0.0005453,
        "meta_inclination": 54.6344,
        "meta_ra_of_asc_node": 308.4188,
        "meta_arg_of_pericenter": 299.6756,
        "meta_mean_anomaly": 237.8086,
        "meta_ephemeris_type": 0,
        "meta_classification_type": "U",
        "meta_norad_cat_id": 61186,
        "meta_element_set_no": 999,
        "meta_rev_at_epoch": 847,
        "meta_bstar": 0,
        "meta_mean_motion_dot": -6.3e-07,
        "meta_mean_motion_ddot": 0,
        "tle_line1": "1 61186U 24168B   25355.45431203 -.00000063  00000+0  00000+0 0  9993",
        "tle_line2": "2 61186  54.6344 308.4188 0005453 299.6756 237.8086  1.86230226  8476"
      },
      "geometry": {
        "type": "Point",
        "coordinates": [
          -62.129195217152095,
          -14.42696755921746
        ]
      }
    },
    {
      "type": "Feature",
      "properties": {
        "norad_id": 61187,
        "name": "BEIDOU-3 M27 (C49)",
        "group": "beidou",
        "lat": 46.51235714003309,
        "lon": 79.94486613786631,
        "alt_km": 21527.732848063402,
        "timestamp": "2025-12-21T16:47:55.003941+00:00",
        "meta_object_name": "BEIDOU-3 M27 (C49)",
        "meta_object_id": "2024-168C",
        "meta_epoch": "2025-12-21T06:06:47.585952",
        "meta_mean_motion": 1.86230383,
        "meta_eccentricity": 0.0002534,
        "meta_inclination": 54.63,
        "meta_ra_of_asc_node": 308.4093,
        "meta_arg_of_pericenter": 340.0926,
        "meta_mean_anomaly": 198.5211,
        "meta_ephemeris_type": 0,
        "meta_classification_type": "U",
        "meta_norad_cat_id": 61187,
        "meta_element_set_no": 999,
        "meta_rev_at_epoch": 594,
        "meta_bstar": 0,
        "meta_mean_motion_dot": -6.4e-07,
        "meta_mean_motion_ddot": 0,
        "tle_line1": "1 61187U 24168C   25355.25471743 -.00000064  00000+0  00000+0 0  9996",
        "tle_line2": "2 61187  54.6300 308.4093 0002534 340.0926 198.5211  1.86230383  5947"
      },
      "geometry": {
        "type": "Point",
        "coordinates": [
          79.94486613786631,
          46.51235714003309
        ]
      }
    }
  ]
}